COSMOS 2251 DEB         
1 39554U 93036BUL 26094.78311736  .00079889  00000+0  30022-2 0  9993
2 39554  74.0093  28.0654 0013638 186.7682 173.3337 15.26699621661002
COSMOS 2251 DEB         
1 39583U 93036BUN 26094.52877279  .00015146  00000+0  26155-2 0  9994
2 39583  73.9337  29.9566 0132107 120.1932 241.2397 14.62815492634273
COSMOS 2251 DEB         
1 39585U 93036BUQ 26084.77439296  .00000848  00000+0  18173-3 0  9990
2 39585  74.0385 105.1324 0067354 201.8321 157.9973 14.58961665640234
COSMOS 2251 DEB         
1 39586U 93036BUR 26089.60564588  .00000955  00000+0  42536-3 0  9990
2 39586  74.0108  34.5535 0100815 145.7150  33.0187 14.21457590625043
COSMOS 2251 DEB         
1 39591U 93036BUW 26093.11821909  .00001982  00000+0  60733-3 0  9990
2 39591  74.0211  40.1029 0028635 131.8267 246.1169 14.42146762633820
COSMOS 2251 DEB         
1 40218U 93036BUX 26095.09580464  .00001537  00000+0  47690-3 0  9998
2 40218  74.0328  38.7139 0015068 102.8932 257.3909 14.41899443604953
COSMOS 2251 DEB         
1 40223U 93036BVC 26095.75923047  .00144160  00000+0  59024-2 0  9998
2 40223  73.9287 211.1678 0014273 349.7842 161.0468 15.23525570610973
COSMOS 2251 DEB         
1 40228U 93036BVH 26094.64564183  .00001534  00000+0  48134-3 0  9990
2 40228  74.0551  51.7640 0021730  89.4435  91.9850 14.41253482605477
COSMOS 2251 DEB         
1 40230U 93036BVK 26095.53379119  .00003835  00000+0  99356-3 0  9993
2 40230  74.0466  13.4173 0016134  44.1211 136.2867 14.50073335606203
COSMOS 2251 DEB         
1 40233U 93036BVN 26093.84097176  .00009065  00000+0  18780-2 0  9990
2 40233  73.9380 248.2349 0045233 296.6708  62.9828 14.59711706607729
COSMOS 2251 DEB         
1 40236U 93036BVR 26074.45641601  .00000538  00000+0  59838-3 0  9993
2 40236  73.5419 357.5856 0537222 229.4971 125.8133 13.24838789548520
COSMOS 2251 DEB         
1 40237U 93036BVS 26094.95600801  .00134401  00000+0  49481-2 0  9997
2 40237  74.0154 172.7388 0008577 328.2966 207.7879 15.27180535612172
COSMOS 2251 DEB         
1 40792U 93036BVV 26094.54440990  .00008919  00000+0  15160-2 0  9990
2 40792  74.0448 189.4277 0018676 265.8522 105.2351 14.69133975648404
COSMOS 2251 DEB         
1 40794U 93036BVX 26091.75118032  .00044136  00000+0  32928-2 0  9993
2 40794  73.9793 260.4169 0007175  15.3464 358.3513 15.02618819635727
COSMOS 2251 DEB         
1 40796U 93036BVZ 26089.29466306  .00007755  00000+0  92586-3 0  9994
2 40796  74.0110 289.1509 0052838  38.6425 137.4520 14.83375696777521
COSMOS 2251 DEB         
1 40797U 93036BWA 26095.59759102  .00021462  00000+0  10791-2 0  9992
2 40797  73.9363 217.5028 0062179 101.0713 259.7483 15.15464135663663
