[{"OBJECT_NAME":"COSMOS 2251 DEB","OBJECT_ID":"1993-036BUL","EPOCH":"2026-04-04T18:47:41.339904","MEAN_MOTION":15.26699621,"ECCENTRICITY":0.00136383,"INCLINATION":74.0093,"RA_OF_ASC_NODE":28.0654,"ARG_OF_PERICENTER":186.7682,"MEAN_ANOMALY":173.3337,"EPHEMERIS_TYPE":0,"CLASSIFICATION_TYPE":"U","NORAD_CAT_ID":39554,"ELEMENT_SET_NO":999,"REV_AT_EPOCH":66100,"BSTAR":0.0030021638,"MEAN_MOTION_DOT":0.00079889,"MEAN_MOTION_DDOT":0},{"OBJECT_NAME":"COSMOS 2251 DEB","OBJECT_ID":"1993-036BUN","EPOCH":"2026-04-04T12:41:25.969056","MEAN_MOTION":14.62815492,"ECCENTRICITY":0.0132107,"INCLINATION":73.9337,"RA_OF_ASC_NODE":29.9566,"ARG_OF_PERICENTER":120.1932,"MEAN_ANOMALY":241.2397,"EPHEMERIS_TYPE":0,"CLASSIFICATION_TYPE":"U","NORAD_CAT_ID":39583,"ELEMENT_SET_NO":999,"REV_AT_EPOCH":63427,"BSTAR":0.0026155,"MEAN_MOTION_DOT":0.00015146,"MEAN_MOTION_DDOT":0},{"OBJECT_NAME":"COSMOS 2251 DEB","OBJECT_ID":"1993-036BUQ","EPOCH":"2026-03-25T18:35:07.551744","MEAN_MOTION":14.58961665,"ECCENTRICITY":0.00673549,"INCLINATION":74.0385,"RA_OF_ASC_NODE":105.1324,"ARG_OF_PERICENTER":201.8321,"MEAN_ANOMALY":157.9973,"EPHEMERIS_TYPE":0,"CLASSIFICATION_TYPE":"U","NORAD_CAT_ID":39585,"ELEMENT_SET_NO":999,"REV_AT_EPOCH":64023,"BSTAR":0.00018172655,"MEAN_MOTION_DOT":8.48e-6,"MEAN_MOTION_DDOT":0},{"OBJECT_NAME":"COSMOS 2251 DEB","OBJECT_ID":"1993-036BUR","EPOCH":"2026-03-30T14:32:07.804032","MEAN_MOTION":14.2145759,"ECCENTRICITY":0.0100815,"INCLINATION":74.0108,"RA_OF_ASC_NODE":34.5535,"ARG_OF_PERICENTER":145.715,"MEAN_ANOMALY":33.0187,"EPHEMERIS_TYPE":0,"CLASSIFICATION_TYPE":"U","NORAD_CAT_ID":39586,"ELEMENT_SET_NO":999,"REV_AT_EPOCH":62504,"BSTAR":0.0004253631,"MEAN_MOTION_DOT":9.55e-6,"MEAN_MOTION_DDOT":0},{"OBJECT_NAME":"COSMOS 2251 DEB","OBJECT_ID":"1993-036BUW","EPOCH":"2026-04-03T02:50:14.129376","MEAN_MOTION":14.42146762,"ECCENTRICITY":0.00286357,"INCLINATION":74.0211,"RA_OF_ASC_NODE":40.1029,"ARG_OF_PERICENTER":131.8267,"MEAN_ANOMALY":246.1169,"EPHEMERIS_TYPE":0,"CLASSIFICATION_TYPE":"U","NORAD_CAT_ID":39591,"ELEMENT_SET_NO":999,"REV_AT_EPOCH":63382,"BSTAR":0.00060732733,"MEAN_MOTION_DOT":1.982e-5,"MEAN_MOTION_DDOT":0},{"OBJECT_NAME":"COSMOS 2251 DEB","OBJECT_ID":"1993-036BUX","EPOCH":"2026-04-05T02:17:57.520896","MEAN_MOTION":14.41899443,"ECCENTRICITY":0.00150687,"INCLINATION":74.0328,"RA_OF_ASC_NODE":38.7139,"ARG_OF_PERICENTER":102.8932,"MEAN_ANOMALY":257.3909,"EPHEMERIS_TYPE":0,"CLASSIFICATION_TYPE":"U","NORAD_CAT_ID":40218,"ELEMENT_SET_NO":999,"REV_AT_EPOCH":60495,"BSTAR":0.0004768988,"MEAN_MOTION_DOT":1.537e-5,"MEAN_MOTION_DDOT":0},{"OBJECT_NAME":"COSMOS 2251 DEB","OBJECT_ID":"1993-036BVC","EPOCH":"2026-04-05T18:13:17.512608","MEAN_MOTION":15.2352557,"ECCENTRICITY":0.0014273,"INCLINATION":73.9287,"RA_OF_ASC_NODE":211.1678,"ARG_OF_PERICENTER":349.7842,"MEAN_ANOMALY":161.0468,"EPHEMERIS_TYPE":0,"CLASSIFICATION_TYPE":"U","NORAD_CAT_ID":40223,"ELEMENT_SET_NO":999,"REV_AT_EPOCH":61097,"BSTAR":0.0059024,"MEAN_MOTION_DOT":0.0014416,"MEAN_MOTION_DDOT":0},{"OBJECT_NAME":"COSMOS 2251 DEB","OBJECT_ID":"1993-036BVH","EPOCH":"2026-04-04T15:29:43.454112","MEAN_MOTION":14.41253482,"ECCENTRICITY":0.002173,"INCLINATION":74.0551,"RA_OF_ASC_NODE":51.764,"ARG_OF_PERICENTER":89.4435,"MEAN_ANOMALY":91.985,"EPHEMERIS_TYPE":0,"CLASSIFICATION_TYPE":"U","NORAD_CAT_ID":40228,"ELEMENT_SET_NO":999,"REV_AT_EPOCH":60547,"BSTAR":0.00048134,"MEAN_MOTION_DOT":1.534e-5,"MEAN_MOTION_DDOT":0},{"OBJECT_NAME":"COSMOS 2251 DEB","OBJECT_ID":"1993-036BVK","EPOCH":"2026-04-05T12:48:39.558816","MEAN_MOTION":14.50073335,"ECCENTRICITY":0.00161343,"INCLINATION":74.0466,"RA_OF_ASC_NODE":13.4173,"ARG_OF_PERICENTER":44.1211,"MEAN_ANOMALY":136.2867,"EPHEMERIS_TYPE":0,"CLASSIFICATION_TYPE":"U","NORAD_CAT_ID":40230,"ELEMENT_SET_NO":999,"REV_AT_EPOCH":60620,"BSTAR":0.00099356174,"MEAN_MOTION_DOT":3.835e-5,"MEAN_MOTION_DDOT":0},{"OBJECT_NAME":"COSMOS 2251 DEB","OBJECT_ID":"1993-036BVN","EPOCH":"2026-04-03T20:10:59.960064","MEAN_MOTION":14.59711706,"ECCENTRICITY":0.00452337,"INCLINATION":73.938,"RA_OF_ASC_NODE":248.2349,"ARG_OF_PERICENTER":296.6708,"MEAN_ANOMALY":62.9828,"EPHEMERIS_TYPE":0,"CLASSIFICATION_TYPE":"U","NORAD_CAT_ID":40233,"ELEMENT_SET_NO":999,"REV_AT_EPOCH":60772,"BSTAR":0.0018779738,"MEAN_MOTION_DOT":9.065e-5,"MEAN_MOTION_DDOT":0},{"OBJECT_NAME":"COSMOS 2251 DEB","OBJECT_ID":"1993-036BVR","EPOCH":"2026-03-15T10:57:14.343264","MEAN_MOTION":13.24838789,"ECCENTRICITY":0.05372226,"INCLINATION":73.5419,"RA_OF_ASC_NODE":357.5856,"ARG_OF_PERICENTER":229.4971,"MEAN_ANOMALY":125.8133,"EPHEMERIS_TYPE":0,"CLASSIFICATION_TYPE":"U","NORAD_CAT_ID":40236,"ELEMENT_SET_NO":999,"REV_AT_EPOCH":54852,"BSTAR":0.00059838163,"MEAN_MOTION_DOT":5.38e-6,"MEAN_MOTION_DDOT":0},{"OBJECT_NAME":"COSMOS 2251 DEB","OBJECT_ID":"1993-036BVS","EPOCH":"2026-04-04T22:56:39.092064","MEAN_MOTION":15.27180535,"ECCENTRICITY":0.00085778,"INCLINATION":74.0154,"RA_OF_ASC_NODE":172.7388,"ARG_OF_PERICENTER":328.2966,"MEAN_ANOMALY":207.7879,"EPHEMERIS_TYPE":0,"CLASSIFICATION_TYPE":"U","NORAD_CAT_ID":40237,"ELEMENT_SET_NO":999,"REV_AT_EPOCH":61217,"BSTAR":0.0049480908,"MEAN_MOTION_DOT":0.00134401,"MEAN_MOTION_DDOT":0},{"OBJECT_NAME":"COSMOS 2251 DEB","OBJECT_ID":"1993-036BVV","EPOCH":"2026-04-04T13:03:57.015360","MEAN_MOTION":14.69133975,"ECCENTRICITY":0.0018676,"INCLINATION":74.0448,"RA_OF_ASC_NODE":189.4277,"ARG_OF_PERICENTER":265.8522,"MEAN_ANOMALY":105.2351,"EPHEMERIS_TYPE":0,"CLASSIFICATION_TYPE":"U","NORAD_CAT_ID":40792,"ELEMENT_SET_NO":999,"REV_AT_EPOCH":64840,"BSTAR":0.0015160112,"MEAN_MOTION_DOT":8.919e-5,"MEAN_MOTION_DDOT":0},{"OBJECT_NAME":"COSMOS 2251 DEB","OBJECT_ID":"1993-036BVX","EPOCH":"2026-04-01T18:01:41.979648","MEAN_MOTION":15.02618819,"ECCENTRICITY":0.0007175,"INCLINATION":73.9793,"RA_OF_ASC_NODE":260.4169,"ARG_OF_PERICENTER":15.3464,"MEAN_ANOMALY":358.3513,"EPHEMERIS_TYPE":0,"CLASSIFICATION_TYPE":"U","NORAD_CAT_ID":40794,"ELEMENT_SET_NO":999,"REV_AT_EPOCH":63572,"BSTAR":0.0032928269,"MEAN_MOTION_DOT":0.00044136,"MEAN_MOTION_DDOT":0},{"OBJECT_NAME":"COSMOS 2251 DEB","OBJECT_ID":"1993-036BVZ","EPOCH":"2026-03-30T07:04:18.888384","MEAN_MOTION":14.83375696,"ECCENTRICITY":0.0052838,"INCLINATION":74.011,"RA_OF_ASC_NODE":289.1509,"ARG_OF_PERICENTER":38.6425,"MEAN_ANOMALY":137.452,"EPHEMERIS_TYPE":0,"CLASSIFICATION_TYPE":"U","NORAD_CAT_ID":40796,"ELEMENT_SET_NO":999,"REV_AT_EPOCH":77752,"BSTAR":0.00092586,"MEAN_MOTION_DOT":7.755e-5,"MEAN_MOTION_DDOT":0},{"OBJECT_NAME":"COSMOS 2251 DEB","OBJECT_ID":"1993-036BWA","EPOCH":"2026-04-05T14:20:31.864128","MEAN_MOTION":15.15464135,"ECCENTRICITY":0.0062179,"INCLINATION":73.9363,"RA_OF_ASC_NODE":217.5028,"ARG_OF_PERICENTER":101.0713,"MEAN_ANOMALY":259.7483,"EPHEMERIS_TYPE":0,"CLASSIFICATION_TYPE":"U","NORAD_CAT_ID":40797,"ELEMENT_SET_NO":999,"REV_AT_EPOCH":66366,"BSTAR":0.0010791,"MEAN_MOTION_DOT":0.00021462,"MEAN_MOTION_DDOT":0}]
